sat27353
1 27353U 01049MA  20046.45366812  .00000963  00000-0  59474-4 0  9992
2 27353  97.6734  56.3544 0024725  54.4031 305.9498 15.12106638983845
